{
  "type": "FeatureCollection",
  "features": [
    {
      "type": "Feature",
      "properties": { "name": "沙朗街道" },
      "geometry": {
        "type": "Polygon",
        "coordinates": [[
          [102.62, 25.10],
          [102.62, 25.06],
          [102.66, 25.06],
          [102.66, 25.10],
          [102.62, 25.10]
        ]]
      }
    },
    {
      "type": "Feature",
      "properties": { "name": "西翥街道" },
      "geometry": {
        "type": "Polygon",
        "coordinates": [[
          [102.62, 25.06],
          [102.62, 25.02],
          [102.66, 25.02],
          [102.66, 25.06],
          [102.62, 25.06]
        ]]
      }
    },
    {
      "type": "Feature",
      "properties": { "name": "黑林铺街道" },
      "geometry": {
        "type": "Polygon",
        "coordinates": [[
          [102.62, 25.02],
          [102.64, 24.98],
          [102.70, 24.98],
          [102.70, 25.02],
          [102.62, 25.02]
        ]]
      }
    },
    {
      "type": "Feature",
      "properties": { "name": "丰宁街道" },
      "geometry": {
        "type": "Polygon",
        "coordinates": [[
          [102.62, 25.10],
          [102.62, 25.06],
          [102.66, 25.06],
          [102.70, 25.06],
          [102.70, 25.10],
          [102.62, 25.10]
        ]]
      }
    },
    {
      "type": "Feature",
      "properties": { "name": "普吉街道" },
      "geometry": {
        "type": "Polygon",
        "coordinates": [[
          [102.66, 25.10],
          [102.66, 25.06],
          [102.70, 25.06],
          [102.70, 25.10],
          [102.66, 25.10]
        ]]
      }
    },
    {
      "type": "Feature",
      "properties": { "name": "大观街道" },
      "geometry": {
        "type": "Polygon",
        "coordinates": [[
          [102.70, 24.98],
          [102.74, 24.98],
          [102.74, 25.02],
          [102.70, 25.02],
          [102.70, 24.98]
        ]]
      }
    },
    {
      "type": "Feature",
      "properties": { "name": "华山街道" },
      "geometry": {
        "type": "Polygon",
        "coordinates": [[
          [102.70, 25.10],
          [102.70, 25.02],
          [102.74, 25.02],
          [102.74, 25.10],
          [102.70, 25.10]
        ]]
      }
    },
    {
      "type": "Feature",
      "properties": { "name": "龙翔街道" },
      "geometry": {
        "type": "Polygon",
        "coordinates": [[
          [102.74, 24.98],
          [102.78, 24.98],
          [102.78, 25.02],
          [102.74, 25.02],
          [102.74, 24.98]
        ]]
      }
    },
    {
      "type": "Feature",
      "properties": { "name": "莲华街道" },
      "geometry": {
        "type": "Polygon",
        "coordinates": [[
          [102.74, 25.10],
          [102.74, 25.02],
          [102.78, 25.02],
          [102.78, 25.10],
          [102.74, 25.10]
        ]]
      }
    },
    {
      "type": "Feature",
      "properties": { "name": "红云街道" },
      "geometry": {
        "type": "Polygon",
        "coordinates": [[
          [102.78, 25.10],
          [102.78, 25.02],
          [102.82, 25.02],
          [102.82, 25.10],
          [102.78, 25.10]
        ]]
      }
    }
  ]
}
